{
  "type": "FeatureCollection",
  "features": [
    {
      "type": "Feature",
      "properties": {
        "norad_id": 64751,
        "name": "PROGRESS-MS 31",
        "group": "stations",
        "lat": -12.326684667700933,
        "lon": 99.65338794834689,
        "alt_km": 419.2993175055344,
        "timestamp": "2025-12-19T08:58:48.108645+00:00",
        "meta_object_name": "PROGRESS-MS 31",
        "meta_object_id": "2025-146A",
        "meta_epoch": "2025-12-18T16:01:23.678688",
        "meta_mean_motion": 15.49654558,
        "meta_eccentricity": 0.00031819,
        "meta_inclination": 51.6314,
        "meta_ra_of_asc_node": 113.1238,
        "meta_arg_of_pericenter": 267.6136,
        "meta_mean_anomaly": 92.4488,
        "meta_ephemeris_type": 0,
        "meta_classification_type": "U",
        "meta_norad_cat_id": 64751,
        "meta_element_set_no": 999,
        "meta_rev_at_epoch": 675,
        "meta_bstar": 0.000138424,
        "meta_mean_motion_dot": 7.358e-05,
        "meta_mean_motion_ddot": 0,
        "tle_line1": "1 64751U 25146A   25352.66763517  .00007358  00000+0  13842-3 0  9992",
        "tle_line2": "2 64751  51.6314 113.1238 0003181 267.6136  92.4488 15.49654558  6753"
      },
      "geometry": {
        "type": "Point",
        "coordinates": [
          99.65338794834689,
          -12.326684667700933
        ]
      }
    },
    {
      "type": "Feature",
      "properties": {
        "norad_id": 64786,
        "name": "TIANZHOU-9",
        "group": "stations",
        "lat": -5.181724804771182,
        "lon": -29.473163090412815,
        "alt_km": 390.04764482175415,
        "timestamp": "2025-12-19T08:58:48.108659+00:00",
        "meta_object_name": "TIANZHOU-9",
        "meta_object_id": "2025-149A",
        "meta_epoch": "2025-12-18T22:15:16.316352",
        "meta_mean_motion": 15.59443301,
        "meta_eccentricity": 0.00076984,
        "meta_inclination": 41.4683,
        "meta_ra_of_asc_node": 339.1361,
        "meta_arg_of_pericenter": 85.4974,
        "meta_mean_anomaly": 274.6744,
        "meta_ephemeris_type": 0,
        "meta_classification_type": "U",
        "meta_norad_cat_id": 64786,
        "meta_element_set_no": 999,
        "meta_rev_at_epoch": 25530,
        "meta_bstar": 0.00026140428,
        "meta_mean_motion_dot": 0.0002103,
        "meta_mean_motion_ddot": 0,
        "tle_line1": "1 64786U 25149A   25352.92727218  .00021030  00000+0  26140-3 0  9998",
        "tle_line2": "2 64786  41.4683 339.1361 0007698  85.4974 274.6744 15.59443301255306"
      },
      "geometry": {
        "type": "Point",
        "coordinates": [
          -29.473163090412815,
          -5.181724804771182
        ]
      }
    },
    {
      "type": "Feature",
      "properties": {
        "norad_id": 65077,
        "name": "CREW DRAGON 11",
        "group": "stations",
        "lat": -12.32668342092846,
        "lon": 99.65338899772352,
        "alt_km": 419.2993174344301,
        "timestamp": "2025-12-19T08:58:48.108670+00:00",
        "meta_object_name": "CREW DRAGON 11",
        "meta_object_id": "2025-166A",
        "meta_epoch": "2025-12-18T16:01:23.678688",
        "meta_mean_motion": 15.49654558,
        "meta_eccentricity": 0.00031819,
        "meta_inclination": 51.6314,
        "meta_ra_of_asc_node": 113.1238,
        "meta_arg_of_pericenter": 267.6136,
        "meta_mean_anomaly": 92.4488,
        "meta_ephemeris_type": 0,
        "meta_classification_type": "U",
        "meta_norad_cat_id": 65077,
        "meta_element_set_no": 999,
        "meta_rev_at_epoch": 214,
        "meta_bstar": 0.000138424,
        "meta_mean_motion_dot": 7.358e-05,
        "meta_mean_motion_ddot": 0,
        "tle_line1": "1 65077U 25166A   25352.66763517  .00007358  00000+0  13842-3 0  9996",
        "tle_line2": "2 65077  51.6314 113.1238 0003181 267.6136  92.4488 15.49654558  2144"
      },
      "geometry": {
        "type": "Point",
        "coordinates": [
          99.65338899772352,
          -12.32668342092846
        ]
      }
    },
    {
      "type": "Feature",
      "properties": {
        "norad_id": 65304,
        "name": "DRAGON CRS-33",
        "group": "stations",
        "lat": -12.326682922219216,
        "lon": 99.6533894174744,
        "alt_km": 419.2993174059884,
        "timestamp": "2025-12-19T08:58:48.108680+00:00",
        "meta_object_name": "DRAGON CRS-33",
        "meta_object_id": "2025-186A",
        "meta_epoch": "2025-12-18T16:01:23.678688",
        "meta_mean_motion": 15.49654558,
        "meta_eccentricity": 0.00031819,
        "meta_inclination": 51.6314,
        "meta_ra_of_asc_node": 113.1238,
        "meta_arg_of_pericenter": 267.6136,
        "meta_mean_anomaly": 92.4488,
        "meta_ephemeris_type": 0,
        "meta_classification_type": "U",
        "meta_norad_cat_id": 65304,
        "meta_element_set_no": 999,
        "meta_rev_at_epoch": 11,
        "meta_bstar": 0.000138424,
        "meta_mean_motion_dot": 7.358e-05,
        "meta_mean_motion_ddot": 0,
        "tle_line1": "1 65304U 25186A   25352.66763517  .00007358  00000+0  13842-3 0  9991",
        "tle_line2": "2 65304  51.6314 113.1238 0003181 267.6136  92.4488 15.49654558   112"
      },
      "geometry": {
        "type": "Point",
        "coordinates": [
          99.6533894174744,
          -12.326682922219216
        ]
      }
    },
    {
      "type": "Feature",
      "properties": {
        "norad_id": 65586,
        "name": "PROGRESS-MS 32",
        "group": "stations",
        "lat": -12.326682423509967,
        "lon": 99.65338983722528,
        "alt_km": 419.2993173775467,
        "timestamp": "2025-12-19T08:58:48.108690+00:00",
        "meta_object_name": "PROGRESS-MS 32",
        "meta_object_id": "2025-204A",
        "meta_epoch": "2025-12-18T16:01:23.678688",
        "meta_mean_motion": 15.49654558,
        "meta_eccentricity": 0.00031819,
        "meta_inclination": 51.6314,
        "meta_ra_of_asc_node": 113.1238,
        "meta_arg_of_pericenter": 267.6136,
        "meta_mean_anomaly": 92.4488,
        "meta_ephemeris_type": 0,
        "meta_classification_type": "U",
        "meta_norad_cat_id": 65586,
        "meta_element_set_no": 999,
        "meta_rev_at_epoch": 27,
        "meta_bstar": 0.000138424,
        "meta_mean_motion_dot": 7.358e-05,
        "meta_mean_motion_ddot": 0,
        "tle_line1": "1 65586U 25204A   25352.66763517  .00007358  00000+0  13842-3 0  9994",
        "tle_line2": "2 65586  51.6314 113.1238 0003181 267.6136  92.4488 15.49654558   271"
      },
      "geometry": {
        "type": "Point",
        "coordinates": [
          99.65338983722528,
          -12.326682423509967
        ]
      }
    },
    {
      "type": "Feature",
      "properties": {
        "norad_id": 65616,
        "name": "CYGNUS NG-23",
        "group": "stations",
        "lat": -12.32668192480134,
        "lon": 99.65339025697561,
        "alt_km": 419.29931734910497,
        "timestamp": "2025-12-19T08:58:48.108700+00:00",
        "meta_object_name": "CYGNUS NG-23",
        "meta_object_id": "2025-208A",
        "meta_epoch": "2025-12-18T16:01:23.678688",
        "meta_mean_motion": 15.49654558,
        "meta_eccentricity": 0.00031819,
        "meta_inclination": 51.6314,
        "meta_ra_of_asc_node": 113.1238,
        "meta_arg_of_pericenter": 267.6136,
        "meta_mean_anomaly": 92.4488,
        "meta_ephemeris_type": 0,
        "meta_classification_type": "U",
        "meta_norad_cat_id": 65616,
        "meta_element_set_no": 999,
        "meta_rev_at_epoch": 22,
        "meta_bstar": 0.000138424,
        "meta_mean_motion_dot": 7.358e-05,
        "meta_mean_motion_ddot": 0,
        "tle_line1": "1 65616U 25208A   25352.66763517  .00007358  00000+0  13842-3 0  9992",
        "tle_line2": "2 65616  51.6314 113.1238 0003181 267.6136  92.4488 15.49654558   220"
      },
      "geometry": {
        "type": "Point",
        "coordinates": [
          99.65339025697561,
          -12.32668192480134
        ]
      }
    },
    {
      "type": "Feature",
      "properties": {
        "norad_id": 65729,
        "name": "DRAGONFLY",
        "group": "stations",
        "lat": 13.125608951516753,
        "lon": -88.91610458948901,
        "alt_km": 350.3168542680196,
        "timestamp": "2025-12-19T08:58:48.108710+00:00",
        "meta_object_name": "DRAGONFLY",
        "meta_object_id": "1998-067XH",
        "meta_epoch": "2025-12-18T14:00:17.390304",
        "meta_mean_motion": 15.73865471,
        "meta_eccentricity": 0.0007166,
        "meta_inclination": 51.6249,
        "meta_ra_of_asc_node": 105.7955,
        "meta_arg_of_pericenter": 314.6867,
        "meta_mean_anomaly": 45.3548,
        "meta_ephemeris_type": 0,
        "meta_classification_type": "U",
        "meta_norad_cat_id": 65729,
        "meta_element_set_no": 999,
        "meta_rev_at_epoch": 1408,
        "meta_bstar": 0.001129306,
        "meta_mean_motion_dot": 0.00166206,
        "meta_mean_motion_ddot": 0,
        "tle_line1": "1 65729U 98067XH  25352.58353461  .00166206  00000+0  11293-2 0  9999",
        "tle_line2": "2 65729  51.6249 105.7955 0007166 314.6867  45.3548 15.73865471 14084"
      },
      "geometry": {
        "type": "Point",
        "coordinates": [
          -88.91610458948901,
          13.125608951516753
        ]
      }
    }
  ]
}